NORAD_CAT_ID,OBJECT_NAME,OBJECT_TYPE,EPOCH,MEAN_MOTION,ECCENTRICITY,INCLINATION,RA_OF_ASC_NODE,ARG_OF_PERICENTER,MEAN_ANOMALY,BSTAR,MEAN_MOTION_DOT,MEAN_MOTION_DDOT,TLE_LINE0,TLE_LINE1,TLE_LINE2,SEMIMAJOR_AXIS,PERIOD,APOGEE,PERIGEE,DECAYED
51884.0,STARLINK-3577,PAYLOAD,2023-02-23 22:11:46,15.08864716,0.0001016,53.2155,301.0516,82.836,277.2748,0.0014455,0.00022808,0.0,0 STARLINK-3577,1 51884U 22022AJ  23054.92484844  .00022808  00000-0  14455-2 0  9992,2 51884  53.2155 301.0516 0001016  82.8360 277.2748 15.08864716 55799,6917.805,95.436,540.373,538.967,0.0
51884.0,STARLINK-3577,PAYLOAD,2023-02-24 02:57:55,15.08875913,9.92e-05,53.215,300.1597,77.9103,282.2,0.0014865,0.00023472,0.0,0 STARLINK-3577,1 51884U 22022AJ  23055.12356389  .00023472  00000-0  14865-2 0  9990,2 51884  53.2150 300.1597 0000992  77.9103 282.2000 15.08875913 55827,6917.771,95.435,540.322,538.949,0.0
51884.0,STARLINK-3577,PAYLOAD,2023-02-24 15:41:01,15.08844123,0.0001318,53.2133,297.7775,93.9846,266.1297,0.00036119,5.466e-05,0.0,0 STARLINK-3577,1 51884U 22022AJ  23055.65348819  .00005466  00000-0  36119-3 0  9997,2 51884  53.2133 297.7775 0001318  93.9846 266.1297 15.08844123 55909,6917.868,95.437,540.645,538.821,0.0
51884.0,STARLINK-3577,PAYLOAD,2023-02-25 01:13:20,15.08851353,8.6e-05,53.215,295.9955,95.1824,264.9266,0.00058266,9e-05,0.0,0 STARLINK-3577,1 51884U 22022AJ  23056.05092594  .00009000  00000-0  58266-3 0  9993,2 51884  53.2150 295.9955 0000860  95.1824 264.9266 15.08851353 55960,6917.846,95.437,540.306,539.116,0.0
51884.0,STARLINK-3577,PAYLOAD,2023-02-25 21:53:21,15.08842289,0.0001249,53.2161,292.1275,97.5524,262.561,0.00097855,0.00015321,0.0,0 STARLINK-3577,1 51884U 22022AJ  23056.91205321  .00015321  00000-0  97855-3 0  9992,2 51884  53.2161 292.1275 0001249  97.5524 262.5610 15.08842289 56091,6917.873,95.437,540.602,538.874,0.0
51884.0,STARLINK-3577,PAYLOAD,2023-02-26 01:04:07,15.0884663,0.0001189,53.2161,291.5324,99.975,260.1376,0.00076154,0.00011855,0.0,0 STARLINK-3577,1 51884U 22022AJ  23057.04453223  .00011855  00000-0  76154-3 0  9990,2 51884  53.2161 291.5324 0001189  99.9750 260.1376 15.08846630 56119,6917.86,95.437,540.548,538.903,0.0
51884.0,STARLINK-3577,PAYLOAD,2023-02-26 15:22:35,15.0885034,0.0001352,53.2158,288.8565,97.2009,262.9137,0.0006137,9.495e-05,0.0,0 STARLINK-3577,1 51884U 22022AJ  23057.64069127  .00009495  00000-0  61370-3 0  9993,2 51884  53.2158 288.8565 0001352  97.2009 262.9137 15.08850340 56209,6917.849,95.437,540.649,538.778,0.0
51884.0,STARLINK-3577,PAYLOAD,2023-02-26 21:44:07,15.08858075,0.0001393,53.2158,287.6695,88.8421,271.273,0.00069338,0.0001077,0.0,0 STARLINK-3577,1 51884U 22022AJ  23057.90564761  .00010770  00000-0  69338-3 0  9996,2 51884  53.2158 287.6695 0001393  88.8421 271.2730 15.08858075 56248,6917.825,95.436,540.654,538.726,0.0
51884.0,STARLINK-3577,PAYLOAD,2023-02-27 00:54:54,15.08863984,0.0001255,53.2159,287.0744,85.3603,274.7533,0.00087382,0.00013655,0.0,0 STARLINK-3577,1 51884U 22022AJ  23058.03812517  .00013655  00000-0  87382-3 0  9990,2 51884  53.2159 287.0744 0001255  85.3603 274.7533 15.08863984 56265,6917.807,95.436,540.54,538.804,0.0
51884.0,STARLINK-3577,PAYLOAD,2023-02-27 18:24:08,15.08878175,9.67e-05,53.2158,283.8027,84.7112,275.399,0.001445,0.00022808,0.0,0 STARLINK-3577,1 51884U 22022AJ  23058.76675970  .00022808  00000-0  14450-2 0  9995,2 51884  53.2158 283.8027 0000967  84.7112 275.3990 15.08878175 56373,6917.764,95.435,540.298,538.96,0.0
51884.0,STARLINK-3577,PAYLOAD,2023-02-27 21:34:54,15.08869373,0.0001197,53.2153,283.2078,93.2038,266.9091,0.00092319,0.00014447,0.0,0 STARLINK-3577,1 51884U 22022AJ  23058.89923889  .00014447  00000-0  92319-3 0  9995,2 51884  53.2153 283.2078 0001197  93.2038 266.9091 15.08869373 56396,6917.791,95.436,540.484,538.828,0.0
51884.0,STARLINK-3577,PAYLOAD,2023-02-28 00:45:40,15.08875435,0.000121,53.2156,282.6131,92.9265,267.1865,0.0011133,0.00017492,0.0,0 STARLINK-3577,1 51884U 22022AJ  23059.03171615  .00017492  00000-0  11133-2 0  9991,2 51884  53.2156 282.6131 0001210  92.9265 267.1865 15.08875435 56417,6917.772,95.435,540.474,538.8,0.0
51884.0,STARLINK-3577,PAYLOAD,2023-02-28 21:25:42,15.08820052,9.39e-05,53.2164,278.7479,72.6413,287.4682,0.00032612,4.903e-05,0.0,0 STARLINK-3577,1 51884U 22022AJ  23059.89285319  .00004903  00000-0  32612-3 0  9991,2 51884  53.2164 278.7479 0000939  72.6413 287.4682 15.08820052 56545,6917.941,95.439,540.456,539.157,0.0
51884.0,STARLINK-3577,PAYLOAD,2023-03-01 21:16:30,15.08840902,8.97e-05,53.2159,274.2883,71.8562,288.2528,0.00072295,0.00011237,0.0,0 STARLINK-3577,1 51884U 22022AJ  23060.88645948  .00011237  00000-0  72295-3 0  9999,2 51884  53.2159 274.2883 0000897  71.8562 288.2528 15.08840902 56698,6917.878,95.437,540.363,539.122,0.0
51884.0,STARLINK-3577,PAYLOAD,2023-03-02 00:27:16,15.08846472,8.87e-05,53.2156,273.6927,66.6033,293.5053,0.00078686,0.00012259,0.0,0 STARLINK-3577,1 51884U 22022AJ  23061.01893849  .00012259  00000-0  78686-3 0  9995,2 51884  53.2156 273.6927 0000887  66.6033 293.5053 15.08846472 56714,6917.861,95.437,540.339,539.112,0.0
51884.0,STARLINK-3577,PAYLOAD,2023-03-02 19:31:53,15.08847413,9.14e-05,53.2146,270.1241,72.2605,287.8487,0.00030713,4.605e-05,0.0,0 STARLINK-3577,1 51884U 22022AJ  23061.81381666  .00004605  00000-0  30713-3 0  9997,2 51884  53.2146 270.1241 0000914  72.2605 287.8487 15.08847413 56839,6917.858,95.437,540.355,539.09,0.0
51884.0,STARLINK-3577,PAYLOAD,2023-03-03 00:18:02,15.08852818,8.75e-05,53.2144,269.2317,71.5955,288.5133,0.00043707,6.677e-05,0.0,0 STARLINK-3577,1 51884U 22022AJ  23062.01253422  .00006677  00000-0  43707-3 0  9996,2 51884  53.2144 269.2317 0000875  71.5955 288.5133 15.08852818 56860,6917.841,95.437,540.312,539.101,0.0
51884.0,STARLINK-3577,PAYLOAD,2023-03-03 20:58:03,15.08846229,8.97e-05,53.2156,265.3632,88.0052,272.1043,0.00010132,1.325e-05,0.0,0 STARLINK-3577,1 51884U 22022AJ  23062.87365276  .00001325  00000-0  10132-3 0  9992,2 51884  53.2156 265.3632 0000897  88.0052 272.1043 15.08846229 56997,6917.861,95.437,540.347,539.106,0.0
51884.0,STARLINK-3577,PAYLOAD,2023-03-04 12:51:55,15.08834743,9.04e-05,53.215,262.3905,89.3446,270.765,-1.5871e-05,-5.4e-06,0.0,0 STARLINK-3577,1 51884U 22022AJ  23063.53605853 -.00000540  00000-0 -15871-4 0  9990,2 51884  53.2150 262.3905 0000904  89.3446 270.7650 15.08834743 57099,6917.896,95.438,540.387,539.136,0.0
51884.0,STARLINK-3577,PAYLOAD,2023-03-04 22:24:14,15.0884276,0.0001159,53.215,260.6099,66.1817,293.9296,2.1884e-05,6e-07,0.0,0 STARLINK-3577,1 51884U 22022AJ  23063.93349706  .00000060  00000-0  21884-4 0  9992,2 51884  53.2150 260.6099 0001159  66.1817 293.9296 15.08842760 57150,6917.872,95.437,540.539,538.935,0.0
51884.0,STARLINK-3577,PAYLOAD,2023-03-05 12:42:42,15.08845821,0.0001292,53.2146,257.9332,70.3616,289.7515,-0.00016335,-2.887e-05,0.0,0 STARLINK-3577,1 51884U 22022AJ  23064.52965494 -.00002887  00000-0 -16335-3 0  9991,2 51884  53.2146 257.9332 0001292  70.3616 289.7515 15.08845821 57244,6917.863,95.437,540.621,538.834,0.0
51884.0,STARLINK-3577,PAYLOAD,2023-03-05 19:04:14,15.08841394,8.81e-05,53.2139,256.7432,87.8234,272.2859,0.00018902,2.722e-05,0.0,0 STARLINK-3577,1 51884U 22022AJ  23064.79461786  .00002722  00000-0  18902-3 0  9993,2 51884  53.2139 256.7432 0000881  87.8234 272.2859 15.08841394 57289,6917.876,95.437,540.351,539.132,0.0
51884.0,STARLINK-3577,PAYLOAD,2023-03-06 18:55:01,15.08847211,0.0001151,53.2151,252.2816,86.0607,274.0516,0.00016493,2.338e-05,0.0,0 STARLINK-3577,1 51884U 22022AJ  23065.78821545  .00002338  00000-0  16493-3 0  9992,2 51884  53.2151 252.2816 0001151  86.0607 274.0516 15.08847211 57437,6917.858,95.437,540.52,538.927,0.0
51884.0,STARLINK-3577,PAYLOAD,2023-03-06 20:30:24,15.08851361,0.0001091,53.216,251.9838,86.5037,273.608,0.00014712,2.055e-05,0.0,0 STARLINK-3577,1 51884U 22022AJ  23065.85444995  .00002055  00000-0  14712-3 0  9998,2 51884  53.2160 251.9838 0001091  86.5037 273.6080 15.08851361 57445,6917.846,95.437,540.465,538.956,0.0
51884.0,STARLINK-3577,PAYLOAD,2023-03-07 18:45:48,15.08843301,8.52e-05,53.2139,247.822,82.5256,277.5833,4.5746e-05,4.4e-06,0.0,0 STARLINK-3577,1 51884U 22022AJ  23066.78181610  .00000440  00000-0  45746-4 0  9991,2 51884  53.2139 247.8220 0000852  82.5256 277.5833 15.08843301 57582,6917.87,95.437,540.325,539.146,0.0
51884.0,STARLINK-3577,PAYLOAD,2023-03-07 21:56:35,15.08846737,0.0001274,53.2151,247.2271,95.1479,264.9658,0.00011575,1.555e-05,0.0,0 STARLINK-3577,1 51884U 22022AJ  23066.91429452  .00001555  00000-0  11575-3 0  9995,2 51884  53.2151 247.2271 0001274  95.1479 264.9658 15.08846737 57606,6917.86,95.437,540.606,538.843,0.0
51884.0,STARLINK-3577,PAYLOAD,2023-03-08 12:15:03,15.08837162,0.0001622,53.215,244.5498,93.0074,267.1104,-1.7228e-05,-5.62e-06,0.0,0 STARLINK-3577,1 51884U 22022AJ  23067.51046027 -.00000562  00000-0 -17228-4 0  9996,2 51884  53.2150 244.5498 0001622  93.0074 267.1104 15.08837162 57693,6917.889,95.438,540.876,538.632,0.0
51884.0,STARLINK-3577,PAYLOAD,2023-03-08 21:47:22,15.08843782,0.0001285,53.215,242.7655,79.5902,280.5235,0.00011887,1.605e-05,0.0,0 STARLINK-3577,1 51884U 22022AJ  23067.90789933  .00001605  00000-0  11887-3 0  9990,2 51884  53.2150 242.7655 0001285  79.5902 280.5235 15.08843782 57758,6917.869,95.437,540.623,538.845,0.0
51884.0,STARLINK-3577,PAYLOAD,2023-03-09 18:27:22,15.0886033,0.0003054,53.2134,238.8982,95.6384,264.4956,0.0003306,4.98e-05,0.0,0 STARLINK-3577,1 51884U 22022AJ  23068.76901034  .00004980  00000-0  33060-3 0  9999,2 51884  53.2134 238.8982 0003054  95.6384 264.4956 15.08860330 57881,6917.818,95.436,541.796,537.571,0.0
51884.0,STARLINK-3577,PAYLOAD,2023-03-10 10:21:14,15.08836337,9.49e-05,53.2137,235.9262,73.4023,286.7073,5.6561e-05,6.12e-06,0.0,0 STARLINK-3577,1 51884U 22022AJ  23069.43142281  .00000612  00000-0  56561-4 0  9995,2 51884  53.2137 235.9262 0000949  73.4023 286.7073 15.08836337 57985,6917.892,95.438,540.413,539.1,0.0
